NORAD_CAT_ID,OBJECT_NAME,OBJECT_TYPE,EPOCH,MEAN_MOTION,ECCENTRICITY,INCLINATION,RA_OF_ASC_NODE,ARG_OF_PERICENTER,MEAN_ANOMALY,BSTAR,MEAN_MOTION_DOT,MEAN_MOTION_DDOT,TLE_LINE0,TLE_LINE1,TLE_LINE2,SEMIMAJOR_AXIS,PERIOD,APOGEE,PERIGEE,DECAYED
52860.0,STARLINK-4191,PAYLOAD,2023-11-27 21:57:02,15.08821429,0.0001522,53.2163,162.5902,102.3198,257.7965,0.00028657,4.273e-05,0.0,0 STARLINK-4191,1 52860U 22062AG  23331.91461529  .00004273  00000-0  28657-3 0  9999,2 52860  53.2163 162.5902 0001522 102.3198 257.7965 15.08821429 80203,6917.937,95.439,540.855,538.749,0.0
52860.0,STARLINK-4191,PAYLOAD,2023-11-28 12:15:30,15.08839538,0.000136,53.216,159.9165,93.4463,266.6685,8.9216e-05,1.132e-05,0.0,0 STARLINK-4191,1 52860U 22062AG  23332.51076969  .00001132  00000-0  89216-4 0  9996,2 52860  53.2160 159.9165 0001360  93.4463 266.6685 15.08839538 80787,6917.882,95.438,540.688,538.806,0.0
52860.0,STARLINK-4191,PAYLOAD,2023-11-28 20:12:25,15.08844768,0.0001338,53.2162,158.4315,93.351,266.7636,0.00014987,2.098e-05,0.0,0 STARLINK-4191,1 52860U 22062AG  23332.84196511  .00002098  00000-0  14987-3 0  9992,2 52860  53.2162 158.4315 0001338  93.3510 266.7636 15.08844768 80347,6917.866,95.437,540.656,538.805,0.0
52860.0,STARLINK-4191,PAYLOAD,2023-11-29 12:06:17,15.08840943,0.0001461,53.2165,155.4594,83.0579,277.0579,9.4028e-05,1.209e-05,0.0,0 STARLINK-4191,1 52860U 22062AG  23333.50437082  .00001209  00000-0  94028-4 0  9995,2 52860  53.2165 155.4594 0001461  83.0579 277.0579 15.08840943 80447,6917.878,95.437,540.753,538.732,0.0
52860.0,STARLINK-4191,PAYLOAD,2023-11-29 18:27:50,15.08839679,0.0001464,53.2166,154.2695,82.8276,277.2883,7.249e-05,8.66e-06,0.0,0 STARLINK-4191,1 52860U 22062AG  23333.76933231  .00000866  00000-0  72490-4 0  9997,2 52860  53.2166 154.2695 0001464  82.8276 277.2883 15.08839679 80973,6917.881,95.438,540.759,538.734,0.0
52860.0,STARLINK-4191,PAYLOAD,2023-12-01 11:47:51,15.08841315,0.00014,53.2166,146.5371,88.3962,271.7191,8.8882e-05,1.127e-05,0.0,0 STARLINK-4191,1 52860U 22062AG  23335.49156914  .00001127  00000-0  88882-4 0  9997,2 52860  53.2166 146.5371 0001400  88.3962 271.7191 15.08841315 81232,6917.876,95.437,540.71,538.773,0.0
52860.0,STARLINK-4191,PAYLOAD,2023-12-01 18:09:23,15.08844022,0.000145,53.2165,145.3469,95.2489,264.8668,9.8682e-05,1.283e-05,0.0,0 STARLINK-4191,1 52860U 22062AG  23335.75652643  .00001283  00000-0  98682-4 0  9998,2 52860  53.2165 145.3469 0001450  95.2489 264.8668 15.08844022 80781,6917.868,95.437,540.736,538.73,0.0
52860.0,STARLINK-4191,PAYLOAD,2023-12-02 11:38:38,15.08840895,0.0001534,53.2165,142.0767,94.6188,265.498,7.6662e-05,9.32e-06,0.0,0 STARLINK-4191,1 52860U 22062AG  23336.48516909  .00000932  00000-0  76662-4 0  9997,2 52860  53.2165 142.0767 0001534  94.6188 265.4980 15.08840895 80898,6917.878,95.437,540.804,538.681,0.0
52860.0,STARLINK-4191,PAYLOAD,2023-12-02 18:00:11,15.08838108,0.0001375,53.2162,140.8845,101.8129,258.3018,-5.7149e-06,-3.79e-06,0.0,0 STARLINK-4191,1 52860U 22062AG  23336.75013154 -.00000379  00000-0 -57149-5 0  9998,2 52860  53.2162 140.8845 0001375 101.8129 258.3018 15.08838108 81424,6917.886,95.438,540.702,538.8,0.0
52860.0,STARLINK-4191,PAYLOAD,2023-12-03 11:29:26,15.08829431,0.0001393,53.2165,137.6124,101.9768,258.138,2.0098e-05,3.2e-07,0.0,0 STARLINK-4191,1 52860U 22062AG  23337.47877843  .00000032  00000-0  20098-4 0  9997,2 52860  53.2165 137.6124 0001393 101.9768 258.1380 15.08829431 81532,6917.913,95.438,540.741,538.814,0.0
52860.0,STARLINK-4191,PAYLOAD,2023-12-03 14:40:12,15.08833385,0.0001415,53.2162,137.0187,101.6344,258.4807,-2.9072e-05,-7.5e-06,0.0,0 STARLINK-4191,1 52860U 22062AG  23337.61125809 -.00000750  00000-0 -29072-4 0  9991,2 52860  53.2162 137.0187 0001415 101.6344 258.4807 15.08833385 81062,6917.901,95.438,540.744,538.787,0.0
52860.0,STARLINK-4191,PAYLOAD,2023-12-04 09:44:50,15.08835817,0.0001292,53.2168,133.4492,98.8664,261.2474,5.2403e-05,5.46e-06,0.0,0 STARLINK-4191,1 52860U 22062AG  23338.40613646  .00000546  00000-0  52403-4 0  9995,2 52860  53.2168 133.4492 0001292  98.8664 261.2474 15.08835817 81673,6917.893,95.438,540.652,538.864,0.0
52860.0,STARLINK-4191,PAYLOAD,2023-12-04 19:17:08,15.08841331,0.0001277,53.2165,131.6664,94.4858,265.628,9.5998e-05,1.24e-05,0.0,0 STARLINK-4191,1 52860U 22062AG  23338.80357198  .00001240  00000-0  95998-4 0  9994,2 52860  53.2165 131.6664 0001277  94.4858 265.6280 15.08841331 81245,6917.876,95.437,540.625,538.858,0.0
52860.0,STARLINK-4191,PAYLOAD,2023-12-05 09:35:37,15.08833814,0.0001115,53.2154,128.9924,95.8165,264.2954,5.7321e-05,6.24e-06,0.0,0 STARLINK-4191,1 52860U 22062AG  23339.39973916  .00000624  00000-0  57321-4 0  9994,2 52860  53.2154 128.9924 0001115  95.8165 264.2954 15.08833814 81822,6917.899,95.438,540.536,538.993,0.0
52860.0,STARLINK-4191,PAYLOAD,2023-12-06 09:26:25,15.08828766,0.0001292,53.2166,124.5306,90.8933,269.2208,-3.9612e-05,-9.18e-06,0.0,0 STARLINK-4191,1 52860U 22062AG  23340.39335002 -.00000918  00000-0 -39612-4 0  9995,2 52860  53.2166 124.5306 0001292  90.8933 269.2208 15.08828766 81978,6917.915,95.438,540.674,538.886,0.0
52860.0,STARLINK-4191,PAYLOAD,2023-12-07 09:17:12,15.08833323,0.0001274,53.2165,120.0703,92.3867,267.7271,7.0408e-06,-1.76e-06,0.0,0 STARLINK-4191,1 52860U 22062AG  23341.38695043 -.00000176  00000-0  70408-5 0  9993,2 52860  53.2165 120.0703 0001274  92.3867 267.7271 15.08833323 82128,6917.901,95.438,540.647,538.884,0.0
52860.0,STARLINK-4191,PAYLOAD,2023-12-08 12:18:44,15.0884972,0.0001182,53.2169,115.0153,91.0408,269.0719,0.00013077,1.794e-05,0.0,0 STARLINK-4191,1 52860U 22062AG  23342.51301429  .00001794  00000-0  13077-3 0  9994,2 52860  53.2169 115.0153 0001182  91.0408 269.0719 15.08849720 81804,6917.851,95.437,540.533,538.898,0.0
52860.0,STARLINK-4191,PAYLOAD,2023-12-08 18:40:16,15.08855378,7.43e-05,53.2169,113.8267,72.289,287.8184,0.00018361,2.637e-05,0.0,0 STARLINK-4191,1 52860U 22062AG  23342.77796812  .00002637  00000-0  18361-3 0  9994,2 52860  53.2169 113.8267 0000743  72.2890 287.8184 15.08855378 82333,6917.833,95.437,540.212,539.184,0.0
52860.0,STARLINK-4191,PAYLOAD,2023-12-09 12:09:32,15.08845391,0.0001042,53.2178,110.5551,91.239,268.8722,-6.254e-05,-1.283e-05,0.0,0 STARLINK-4191,1 52860U 22062AG  23343.50662073 -.00001283  00000-0 -62540-4 0  9994,2 52860  53.2178 110.5551 0001042  91.2390 268.8722 15.08845391 82445,6917.864,95.437,540.45,539.008,0.0
52860.0,STARLINK-4191,PAYLOAD,2023-12-10 12:00:18,15.08879194,9.57e-05,53.2172,106.0958,78.7183,281.3917,-0.00046652,-7.713e-05,0.0,0 STARLINK-4191,1 52860U 22062AG  23344.50021467 -.00007713  00000-0 -46652-3 0  9990,2 52860  53.2172 106.0958 0000957  78.7183 281.3917 15.08879194 82594,6917.761,95.435,540.288,538.964,0.0
52860.0,STARLINK-4191,PAYLOAD,2023-12-10 13:35:41,15.08808829,0.0001025,53.2173,105.7985,117.0899,243.0197,0.00042363,6.455e-05,0.0,0 STARLINK-4191,1 52860U 22062AG  23344.56645819  .00006455  00000-0  42363-3 0  9994,2 52860  53.2173 105.7985 0001025 117.0899 243.0197 15.08808829 82119,6917.976,95.44,540.55,539.132,0.0
52860.0,STARLINK-4191,PAYLOAD,2023-12-10 15:11:04,15.08859674,0.0001168,53.2168,105.5001,94.2335,265.8791,-0.0001823,-3.19e-05,0.0,0 STARLINK-4191,1 52860U 22062AG  23344.63269277 -.00003190  00000-0 -18230-3 0  9993,2 52860  53.2168 105.5001 0001168  94.2335 265.8791 15.08859674 82126,6917.82,95.436,540.493,538.877,0.0
52860.0,STARLINK-4191,PAYLOAD,2023-12-11 11:51:06,15.08832374,0.0001494,53.2187,101.6379,105.5423,254.5734,5.8083e-06,-1.96e-06,0.0,0 STARLINK-4191,1 52860U 22062AG  23345.49382250 -.00000196  00000-0  58083-5 0  9999,2 52860  53.2187 101.6379 0001494 105.5423 254.5734 15.08832374 82746,6917.904,95.438,540.802,538.735,0.0
52860.0,STARLINK-4191,PAYLOAD,2023-12-11 13:26:29,15.08832608,0.0001478,53.2184,101.3402,105.0119,255.1037,7.4809e-06,-1.69e-06,0.0,0 STARLINK-4191,1 52860U 22062AG  23345.56006264 -.00000169  00000-0  74809-5 0  9999,2 52860  53.2184 101.3402 0001478 105.0119 255.1037 15.08832608 82266,6917.903,95.438,540.79,538.746,0.0
52860.0,STARLINK-4191,PAYLOAD,2023-12-12 13:17:16,15.08836629,0.0001455,53.2182,96.8805,105.9274,254.1879,-2.2694e-06,-3.24e-06,0.0,0 STARLINK-4191,1 52860U 22062AG  23346.55366419 -.00000324  00000-0 -22694-5 0  9999,2 52860  53.2182  96.8805 0001455 105.9274 254.1879 15.08836629 82412,6917.891,95.438,540.762,538.749,0.0
52860.0,STARLINK-4191,PAYLOAD,2023-12-12 14:52:39,15.08839476,0.0001379,53.2182,96.5828,94.7805,265.3344,1.8777e-05,1.1e-07,0.0,0 STARLINK-4191,1 52860U 22062AG  23346.61990234  .00000011  00000-0  18777-4 0  9991,2 52860  53.2182  96.5828 0001379  94.7805 265.3344 15.08839476 82913,6917.882,95.438,540.701,538.793,0.0
52860.0,STARLINK-4191,PAYLOAD,2023-12-13 14:43:25,15.08848187,0.0001317,53.2174,92.1179,83.034,277.0802,0.00013766,1.904e-05,0.0,0 STARLINK-4191,1 52860U 22062AG  23347.61349254  .00001904  00000-0  13766-3 0  9996,2 52860  53.2174  92.1179 0001317  83.0340 277.0802 15.08848187 82572,6917.855,95.437,540.631,538.809,0.0
52860.0,STARLINK-4191,PAYLOAD,2023-12-14 11:23:27,15.08840476,0.0001238,53.2173,88.2504,90.3847,269.7287,-1.7099e-05,-5.6e-06,0.0,0 STARLINK-4191,1 52860U 22062AG  23348.47462239 -.00000560  00000-0 -17099-4 0  9993,2 52860  53.2173  88.2504 0001238  90.3847 269.7287 15.08840476 83191,6917.879,95.438,540.6,538.888,0.0
52860.0,STARLINK-4191,PAYLOAD,2023-12-14 14:34:13,15.08831088,0.0003823,53.2173,87.6615,183.1776,176.9193,-0.00012285,-2.243e-05,0.0,0 STARLINK-4191,1 52860U 22062AG  23348.60710200 -.00002243  00000-0 -12285-3 0  9993,2 52860  53.2173  87.6615 0003823 183.1776 176.9193 15.08831088 82723,6917.908,95.438,542.417,537.128,0.0
52860.0,STARLINK-4191,PAYLOAD,2023-12-15 12:49:37,15.08838387,0.0001346,53.2175,83.4943,82.6083,277.5062,-4.3696e-05,-9.83e-06,0.0,0 STARLINK-4191,1 52860U 22062AG  23349.53446573 -.00000983  00000-0 -43696-4 0  9995,2 52860  53.2175  83.4943 0001346  82.6083 277.5062 15.08838387 82862,6917.885,95.438,540.681,538.819,0.0
